NORAD_CAT_ID,OBJECT_NAME,OBJECT_TYPE,EPOCH,MEAN_MOTION,ECCENTRICITY,INCLINATION,RA_OF_ASC_NODE,ARG_OF_PERICENTER,MEAN_ANOMALY,BSTAR,MEAN_MOTION_DOT,MEAN_MOTION_DDOT,TLE_LINE0,TLE_LINE1,TLE_LINE2,SEMIMAJOR_AXIS,PERIOD,APOGEE,PERIGEE,DECAYED
52376.0,STARLINK-3767,PAYLOAD,2024-05-28 12:46:48,15.08845891,0.0001326,53.2171,227.7895,91.3384,268.776,0.00012545,1.71e-05,0.0,0 STARLINK-3767,1 52376U 22045AX  24149.53250415  .00001710  00000-0  12545-3 0  9990,2 52376  53.2171 227.7895 0001326  91.3384 268.7760 15.08845891117772,6917.862,95.437,540.645,538.81,0.0
52376.0,STARLINK-3767,PAYLOAD,2024-05-29 12:37:35,15.08844253,0.0001336,53.2179,223.3236,63.3458,296.7671,-1.3156e-05,-4.97e-06,0.0,0 STARLINK-3767,1 52376U 22045AX  24150.52610952 -.00000497  00000-0 -13156-4 0  9990,2 52376  53.2179 223.3236 0001336  63.3458 296.7671 15.08844253117923,6917.867,95.437,540.657,538.808,0.0
52376.0,STARLINK-3767,PAYLOAD,2024-05-29 14:12:58,15.08843574,0.0001235,53.2176,223.0268,103.4001,256.7129,3.3404e-06,-2.35e-06,0.0,0 STARLINK-3767,1 52376U 22045AX  24150.59234847 -.00000235  00000-0  33404-5 0  9990,2 52376  53.2176 223.0268 0001235 103.4001 256.7129 15.08843574117930,6917.869,95.437,540.589,538.88,0.0
52376.0,STARLINK-3767,PAYLOAD,2024-05-29 14:12:59,15.08838482,0.0001309,53.2177,223.0265,93.7716,266.3425,0.00011108,1.48e-05,0.0,0 STARLINK-3767,1 52376U 22045AX  24150.59235158  .00001480  00000-0  11108-3 0  9993,2 52376  53.2177 223.0265 0001309  93.7716 266.3425 15.08838482117932,6917.885,95.438,540.656,538.844,0.0
52376.0,STARLINK-3767,PAYLOAD,2024-05-30 10:52:59,15.08852558,0.0001379,53.2172,219.1665,80.3237,279.7911,6.1625e-05,6.93e-06,0.0,0 STARLINK-3767,1 52376U 22045AX  24151.45346336  .00000693  00000-0  61625-4 0  9995,2 52376  53.2172 219.1665 0001379  80.3237 279.7911 15.08852558118067,6917.842,95.437,540.661,538.753,0.0
52376.0,STARLINK-3767,PAYLOAD,2024-05-31 10:43:46,15.08846848,0.0001393,53.2165,214.7069,82.4904,277.6246,0.00012328,1.675e-05,0.0,0 STARLINK-3767,1 52376U 22045AX  24152.44706468  .00001675  00000-0  12328-3 0  9997,2 52376  53.2165 214.7069 0001393  82.4904 277.6246 15.08846848118218,6917.859,95.437,540.688,538.761,0.0
52376.0,STARLINK-3767,PAYLOAD,2024-05-31 13:54:32,15.08850628,0.0001349,53.2162,214.1105,86.5507,273.5639,0.00015827,2.233e-05,0.0,0 STARLINK-3767,1 52376U 22045AX  24152.57954083  .00002233  00000-0  15827-3 0  9997,2 52376  53.2162 214.1105 0001349  86.5507 273.5639 15.08850628118239,6917.848,95.437,540.646,538.78,0.0
52376.0,STARLINK-3767,PAYLOAD,2024-06-01 04:13:01,15.08842451,0.0001514,53.2167,211.4315,99.9985,260.1178,1.6141e-05,-3.1e-07,0.0,0 STARLINK-3767,1 52376U 22045AX  24153.17570696 -.00000031  00000-0  16141-4 0  9994,2 52376  53.2167 211.4315 0001514  99.9985 260.1178 15.08842451118324,6917.873,95.437,540.785,538.691,0.0
52376.0,STARLINK-3767,PAYLOAD,2024-06-01 10:34:33,15.08842391,0.0001335,53.2154,210.244,92.9279,267.1866,2.0255e-05,3.4e-07,0.0,0 STARLINK-3767,1 52376U 22045AX  24153.44066564  .00000034  00000-0  20255-4 0  9991,2 52376  53.2154 210.2440 0001335  92.9279 267.1866 15.08842391118364,6917.873,95.437,540.662,538.815,0.0
52376.0,STARLINK-3767,PAYLOAD,2024-06-02 04:03:48,15.08832382,0.0001343,53.2153,206.9719,95.7831,264.3314,7.1156e-06,-1.75e-06,0.0,0 STARLINK-3767,1 52376U 22045AX  24154.16931317 -.00000175  00000-0  71156-5 0  9992,2 52376  53.2153 206.9719 0001343  95.7831 264.3314 15.08832382118476,6917.904,95.438,540.698,538.84,0.0
52376.0,STARLINK-3767,PAYLOAD,2024-06-02 10:25:21,15.08834961,0.0001347,53.2158,205.7829,94.7736,265.341,2.6788e-05,1.38e-06,0.0,0 STARLINK-3767,1 52376U 22045AX  24154.43427166  .00000138  00000-0  26788-4 0  9992,2 52376  53.2158 205.7829 0001347  94.7736 265.3410 15.08834961118515,6917.896,95.438,540.693,538.829,0.0
52376.0,STARLINK-3767,PAYLOAD,2024-06-02 19:57:39,15.08839512,0.0001419,53.216,203.9989,92.9928,267.1227,-2.8997e-05,-7.49e-06,0.0,0 STARLINK-3767,1 52376U 22045AX  24154.83171132 -.00000749  00000-0 -28997-4 0  9999,2 52376  53.2160 203.9989 0001419  92.9928 267.1227 15.08839512118577,6917.882,95.438,540.729,538.765,0.0
52376.0,STARLINK-3767,PAYLOAD,2024-06-03 10:16:08,15.08836173,0.0001518,53.2168,201.3241,94.1297,265.9869,4.7179e-05,4.63e-06,0.0,0 STARLINK-3767,1 52376U 22045AX  24155.42787478  .00000463  00000-0  47179-4 0  9995,2 52376  53.2168 201.3241 0001518  94.1297 265.9869 15.08836173118669,6917.892,95.438,540.807,538.707,0.0
52376.0,STARLINK-3767,PAYLOAD,2024-06-03 19:48:27,15.08836987,0.0001517,53.217,199.5396,92.3006,267.816,9.1198e-05,1.164e-05,0.0,0 STARLINK-3767,1 52376U 22045AX  24155.82531439  .00001164  00000-0  91198-4 0  9992,2 52376  53.2170 199.5396 0001517  92.3006 267.8160 15.08836987118723,6917.89,95.438,540.804,538.705,0.0
52376.0,STARLINK-3767,PAYLOAD,2024-06-04 11:42:17,15.08846423,0.0001473,53.2165,196.5662,96.6649,263.451,0.0001593,2.249e-05,0.0,0 STARLINK-3767,1 52376U 22045AX  24156.48770794  .00002249  00000-0  15930-3 0  9998,2 52376  53.2165 196.5662 0001473  96.6649 263.4510 15.08846423118829,6917.861,95.437,540.745,538.707,0.0
52376.0,STARLINK-3767,PAYLOAD,2024-06-04 19:39:13,15.0884226,0.000147,53.2163,195.079,94.3559,265.7602,0.0001016,1.329e-05,0.0,0 STARLINK-3767,1 52376U 22045AX  24156.81891177  .00001329  00000-0  10160-3 0  9992,2 52376  53.2163 195.0790 0001470  94.3559 265.7602 15.08842260118872,6917.873,95.437,540.755,538.722,0.0
52376.0,STARLINK-3767,PAYLOAD,2024-06-05 09:57:42,15.08843154,0.0001464,53.2162,192.4022,92.2581,267.8578,9.1522e-05,1.169e-05,0.0,0 STARLINK-3767,1 52376U 22045AX  24157.41507129  .00001169  00000-0  91522-4 0  9994,2 52376  53.2162 192.4022 0001464  92.2581 267.8578 15.08843154118963,6917.871,95.437,540.749,538.723,0.0
52376.0,STARLINK-3767,PAYLOAD,2024-06-05 19:30:01,15.08838945,0.0001399,53.2152,190.6163,85.2301,274.8851,1.4148e-05,-6.3e-07,0.0,0 STARLINK-3767,1 52376U 22045AX  24157.81251571 -.00000063  00000-0  14148-4 0  9997,2 52376  53.2152 190.6163 0001399  85.2301 274.8851 15.08838945119029,6917.884,95.438,540.716,538.781,0.0
52376.0,STARLINK-3767,PAYLOAD,2024-06-06 09:48:29,15.08838411,0.0001387,53.2154,187.9406,88.1316,271.9835,-6.6917e-05,-1.353e-05,0.0,0 STARLINK-3767,1 52376U 22045AX  24158.40867925 -.00001353  00000-0 -66917-4 0  9994,2 52376  53.2154 187.9406 0001387  88.1316 271.9835 15.08838411119113,6917.885,95.438,540.71,538.791,0.0
52376.0,STARLINK-3767,PAYLOAD,2024-06-07 01:42:20,15.08841072,0.0001383,53.2157,184.9666,89.2975,270.8176,5.6923e-05,6.18e-06,0.0,0 STARLINK-3767,1 52376U 22045AX  24159.07107387  .00000618  00000-0  56923-4 0  9994,2 52376  53.2157 184.9666 0001383  89.2975 270.8176 15.08841072119214,6917.877,95.437,540.699,538.785,0.0
52376.0,STARLINK-3767,PAYLOAD,2024-06-07 08:03:53,15.08844717,0.0001381,53.2156,183.7775,89.1432,270.9718,8.2537e-05,1.026e-05,0.0,0 STARLINK-3767,1 52376U 22045AX  24159.33603044  .00001026  00000-0  82537-4 0  9998,2 52376  53.2156 183.7775 0001381  89.1432 270.9718 15.08844717119252,6917.866,95.437,540.686,538.776,0.0
52376.0,STARLINK-3767,PAYLOAD,2024-06-07 19:11:34,15.08844039,0.0001375,53.2159,181.6961,88.9032,271.2117,0.00011216,1.498e-05,0.0,0 STARLINK-3767,1 52376U 22045AX  24159.79970948  .00001498  00000-0  11216-3 0  9996,2 52376  53.2159 181.6961 0001375  88.9032 271.2117 15.08844039119327,6917.868,95.437,540.684,538.782,0.0
52376.0,STARLINK-3767,PAYLOAD,2024-06-08 04:43:53,15.08839777,0.0001369,53.216,179.9126,87.4564,272.6584,0.00014468,2.015e-05,0.0,0 STARLINK-3767,1 52376U 22045AX  24160.19715170  .00002015  00000-0  14468-3 0  9994,2 52376  53.2160 179.9126 0001369  87.4564 272.6584 15.08839777119381,6917.881,95.438,540.693,538.799,0.0
52376.0,STARLINK-3767,PAYLOAD,2024-06-08 07:54:40,15.08842454,0.0001369,53.2161,179.3173,89.9786,270.1363,0.00016564,2.349e-05,0.0,0 STARLINK-3767,1 52376U 22045AX  24160.32962991  .00002349  00000-0  16564-3 0  9993,2 52376  53.2161 179.3173 0001369  89.9786 270.1363 15.08842454119408,6917.873,95.437,540.685,538.791,0.0
52376.0,STARLINK-3767,PAYLOAD,2024-06-09 04:34:41,15.08835762,0.0001417,53.2161,175.4509,94.0926,266.0228,-3.8914e-05,-9.07e-06,0.0,0 STARLINK-3767,1 52376U 22045AX  24161.19076043 -.00000907  00000-0 -38914-4 0  9997,2 52376  53.2161 175.4509 0001417  94.0926 266.0228 15.08835762119537,6917.893,95.438,540.739,538.778,0.0
52376.0,STARLINK-3767,PAYLOAD,2024-06-09 10:56:14,15.08832705,0.0001405,53.2161,174.2618,92.6882,267.427,-6.9047e-05,-1.386e-05,0.0,0 STARLINK-3767,1 52376U 22045AX  24161.45572329 -.00001386  00000-0 -69047-4 0  9997,2 52376  53.2161 174.2618 0001405  92.6882 267.4270 15.08832705119577,6917.903,95.438,540.74,538.796,0.0
52376.0,STARLINK-3767,PAYLOAD,2024-06-10 07:36:14,15.08838571,0.0001341,53.2159,170.3968,90.5303,269.5842,3.4701e-06,-2.33e-06,0.0,0 STARLINK-3767,1 52376U 22045AX  24162.31683916 -.00000233  00000-0  34701-5 0  9997,2 52376  53.2159 170.3968 0001341  90.5303 269.5842 15.08838571119703,6917.885,95.438,540.677,538.822,0.0
52376.0,STARLINK-3767,PAYLOAD,2024-06-10 17:08:33,15.08836621,0.0001328,53.216,168.6121,86.6835,273.4309,6.4642e-05,7.41e-06,0.0,0 STARLINK-3767,1 52376U 22045AX  24162.71427945  .00000741  00000-0  64642-4 0  9998,2 52376  53.2160 168.6121 0001328  86.6835 273.4309 15.08836621119769,6917.891,95.438,540.674,538.837,0.0
52376.0,STARLINK-3767,PAYLOAD,2024-06-11 07:27:01,15.08836607,0.0001296,53.2158,165.9367,94.0731,266.0409,0.00011934,1.612e-05,0.0,0 STARLINK-3767,1 52376U 22045AX  24163.31043972  .00001612  00000-0  11934-3 0  9992,2 52376  53.2158 165.9367 0001296  94.0731 266.0409 15.08836607119853,6917.891,95.438,540.652,538.859,0.0
52376.0,STARLINK-3767,PAYLOAD,2024-06-12 05:42:26,15.08833158,0.0001357,53.2163,161.7738,93.2232,266.8916,-1.3362e-07,-2.9e-06,0.0,0 STARLINK-3767,1 52376U 22045AX  24164.23780858 -.00000290  00000-0 -13362-6 0  9998,2 52376  53.2163 161.7738 0001357  93.2232 266.8916 15.08833158119994,6917.901,95.438,540.705,538.828,0.0
